NORAD_CAT_ID,OBJECT_NAME,OBJECT_TYPE,EPOCH,MEAN_MOTION,ECCENTRICITY,INCLINATION,RA_OF_ASC_NODE,ARG_OF_PERICENTER,MEAN_ANOMALY,BSTAR,MEAN_MOTION_DOT,MEAN_MOTION_DDOT,TLE_LINE0,TLE_LINE1,TLE_LINE2,SEMIMAJOR_AXIS,PERIOD,APOGEE,PERIGEE,DECAYED
49409.0,STARLINK-3075,PAYLOAD,2022-07-07 19:53:34,15.08841593,0.0002924,53.2166,128.4882,59.7145,300.4136,3.7656e-05,3.11e-06,0.0,0 STARLINK-3075,1 49409U 21104B   22188.82886991  .00000311  00000-0  37656-4 0  9992,2 49409  53.2166 128.4882 0002924  59.7145 300.4136 15.08841593 36215,6917.876,95.437,541.763,537.7180000000002,0.0
49409.0,STARLINK-3075,PAYLOAD,2022-07-08 02:15:06,15.08849525,0.0002931,53.2163,127.2987,60.7701,299.3584,7.8966e-05,9.69e-06,0.0,0 STARLINK-3075,1 49409U 21104B   22189.09382247  .00000969  00000-0  78966-4 0  9995,2 49409  53.2163 127.2987 0002931  60.7701 299.3584 15.08849525 37333,6917.851,95.437,541.744,537.689,0.0
49409.0,STARLINK-3075,PAYLOAD,2022-07-08 13:22:47,15.08861232,0.0002925,53.2169,125.2168,62.1104,298.0184,0.00015701,2.213e-05,0.0,0 STARLINK-3075,1 49409U 21104B   22189.55748851  .00002213  00000-0  15701-3 0  9994,2 49409  53.2169 125.2168 0002925  62.1104 298.0184 15.08861232 36323,6917.815,95.436,541.7040000000002,537.6569999999998,0.0
49409.0,STARLINK-3075,PAYLOAD,2022-07-08 19:44:19,15.0885445,0.0002959,53.217,124.0279,63.4885,296.6411,0.00017921,2.566e-05,0.0,0 STARLINK-3075,1 49409U 21104B   22189.82244930  .00002566  00000-0  17921-3 0  9990,2 49409  53.2170 124.0279 0002959  63.4885 296.6411 15.08854450 36367,6917.8359999999975,95.437,541.748,537.654,0.0
49409.0,STARLINK-3075,PAYLOAD,2022-07-09 02:05:52,15.08853117,0.0002939,53.2169,122.8382,63.8341,296.2953,0.00016699,2.371e-05,0.0,0 STARLINK-3075,1 49409U 21104B   22190.08740992  .00002371  00000-0  16699-3 0  9994,2 49409  53.2169 122.8382 0002939  63.8341 296.2953 15.08853117 37485,6917.84,95.437,541.738,537.672,0.0
49409.0,STARLINK-3075,PAYLOAD,2022-07-09 05:16:38,15.08854146,0.0002945,53.2168,122.2435,64.0288,296.1008,0.00017509,2.5e-05,0.0,0 STARLINK-3075,1 49409U 21104B   22190.21988877  .00002500  00000-0  17509-3 0  9990,2 49409  53.2168 122.2435 0002945  64.0288 296.1008 15.08854146 36423,6917.837,95.437,541.739,537.665,0.0
49409.0,STARLINK-3075,PAYLOAD,2022-07-10 05:07:27,15.088174,0.0002757,53.2162,117.7829,62.0583,298.0687,-0.00041019,-6.807e-05,0.0,0 STARLINK-3075,1 49409U 21104B   22191.21351337 -.00006807  00000-0 -41019-3 0  9995,2 49409  53.2162 117.7829 0002757  62.0583 298.0687 15.08817400 37652,6917.949000000001,95.439,541.722,537.9069999999998,0.0
49409.0,STARLINK-3075,PAYLOAD,2022-07-10 19:25:56,15.08818996,0.0002688,53.2162,115.1073,60.7747,299.3514,-0.00022829,-3.918e-05,0.0,0 STARLINK-3075,1 49409U 21104B   22191.80967933 -.00003918  00000-0 -22829-3 0  9993,2 49409  53.2162 115.1073 0002688  60.7747 299.3514 15.08818996 36669,6917.945,95.439,541.669,537.95,0.0
49409.0,STARLINK-3075,PAYLOAD,2022-07-11 04:58:14,15.08835239,0.0002687,53.216,113.3228,62.1603,297.9661,8.7681e-05,1.107e-05,0.0,0 STARLINK-3075,1 49409U 21104B   22192.20711510  .00001107  00000-0  87681-4 0  9990,2 49409  53.2160 113.3228 0002687  62.1603 297.9661 15.08835239 37808,6917.895,95.438,541.619,537.901,0.0
49409.0,STARLINK-3075,PAYLOAD,2022-07-11 11:19:47,15.08836715,0.0002674,53.2163,112.1336,62.2938,297.8325,0.00011499,1.542e-05,0.0,0 STARLINK-3075,1 49409U 21104B   22192.47207605  .00001542  00000-0  11499-3 0  9990,2 49409  53.2163 112.1336 0002674  62.2938 297.8325 15.08836715 36766,6917.89,95.438,541.605,537.906,0.0
49409.0,STARLINK-3075,PAYLOAD,2022-07-11 19:16:43,15.088370800000002,0.0002544,53.2163,110.647,61.8022,298.3227,0.00055632,8.576e-05,0.0,0 STARLINK-3075,1 49409U 21104B   22192.80327872  .00008576  00000-0  55632-3 0  9997,2 49409  53.2163 110.6470 0002544  61.8022 298.3227 15.08837080 36812,6917.889,95.438,541.514,537.994,0.0
49409.0,STARLINK-3075,PAYLOAD,2022-07-12 11:10:34,15.08851663,0.0002594,53.2162,107.6738,61.4953,298.63,0.00047541,7.289e-05,0.0,0 STARLINK-3075,1 49409U 21104B   22193.46567486  .00007289  00000-0  47541-3 0  9997,2 49409  53.2162 107.6738 0002594  61.4953 298.6300 15.08851663 37996,6917.845,95.437,541.504,537.915,0.0
49409.0,STARLINK-3075,PAYLOAD,2022-07-12 19:07:29,15.08851715,0.0002474,53.2165,106.1867,63.1871,296.9374,0.00012327,1.675e-05,0.0,0 STARLINK-3075,1 49409U 21104B   22193.79687041  .00001675  00000-0  12327-3 0  9990,2 49409  53.2165 106.1867 0002474  63.1871 296.9374 15.08851715 36967,6917.845,95.437,541.4209999999998,537.998,0.0
49409.0,STARLINK-3075,PAYLOAD,2022-07-13 11:01:20,15.088563,0.0002504,53.2163,103.2132,62.4488,297.6759,0.00017576,2.511e-05,0.0,0 STARLINK-3075,1 49409U 21104B   22194.45926440  .00002511  00000-0  17576-3 0  9994,2 49409  53.2163 103.2132 0002504  62.4488 297.6759 15.08856300 37060,6917.831,95.437,541.428,537.9630000000002,0.0
49409.0,STARLINK-3075,PAYLOAD,2022-07-13 18:58:16,15.08846843,0.0002504,53.2164,101.7265,62.3063,297.8183,-5.9815e-05,-1.241e-05,0.0,0 STARLINK-3075,1 49409U 21104B   22194.79046539 -.00001241  00000-0 -59815-4 0  9997,2 49409  53.2164 101.7265 0002504  62.3063 297.8183 15.08846843 38198,6917.859,95.437,541.457,537.992,0.0
49409.0,STARLINK-3075,PAYLOAD,2022-07-14 02:55:13,15.08836839,0.0002419,53.217,100.2392,61.5734,298.5501,-0.00011913,-2.184e-05,0.0,0 STARLINK-3075,1 49409U 21104B   22195.12167944 -.00002184  00000-0 -11913-3 0  9992,2 49409  53.2170 100.2392 0002419  61.5734 298.5501 15.08836839 38243,6917.89,95.438,541.428,538.082,0.0
49409.0,STARLINK-3075,PAYLOAD,2022-07-14 10:52:08,15.08838511,0.0002212,53.2164,98.7542,63.5023,296.6196,-5.7789e-05,-1.208e-05,0.0,0 STARLINK-3075,1 49409U 21104B   22195.45287640 -.00001208  00000-0 -57789-4 0  9992,2 49409  53.2164  98.7542 0002212  63.5023 296.6196 15.08838511 37212,6917.885,95.438,541.28,538.22,0.0
49409.0,STARLINK-3075,PAYLOAD,2022-07-14 20:24:28,15.08827602,0.0002233,53.217,96.9678,62.401,297.7209,-6.7615e-05,-1.364e-05,0.0,0 STARLINK-3075,1 49409U 21104B   22195.85032519 -.00001364  00000-0 -67615-4 0  9991,2 49409  53.2170  96.9678 0002233  62.4010 297.7209 15.08827602 37278,6917.918000000002,95.438,541.328,538.239,0.0
49409.0,STARLINK-3075,PAYLOAD,2022-07-15 10:42:55,15.08846814,0.0002285,53.2173,94.292,61.8384,298.2839,5.447300000000001e-05,5.79e-06,0.0,0 STARLINK-3075,1 49409U 21104B   22196.44647196  .00000579  00000-0  54473-4 0  9993,2 49409  53.2173  94.2920 0002285  61.8384 298.2839 15.08846814 38447,6917.86,95.437,541.305,538.144,0.0
49409.0,STARLINK-3075,PAYLOAD,2022-07-16 10:33:42,15.08840093,0.0002034,53.2169,89.8317,60.2045,299.9149,0.0001648,2.336e-05,0.0,0 STARLINK-3075,1 49409U 21104B   22197.44007224  .00002336  00000-0  16480-3 0  9994,2 49409  53.2169  89.8317 0002034  60.2045 299.9149 15.08840093 38592,6917.88,95.438,541.1519999999998,538.3380000000002,0.0
49409.0,STARLINK-3075,PAYLOAD,2022-07-16 21:41:24,15.08833062,0.0001801,53.2173,87.7496,65.1938,294.9242,0.00011928,1.6100000000000002e-05,0.0,0 STARLINK-3075,1 49409U 21104B   22197.90375782  .00001610  00000-0  11928-3 0  9998,2 49409  53.2173  87.7496 0001801  65.1938 294.9242 15.08833062 37583,6917.901999999999,95.438,541.013,538.521,0.0
49409.0,STARLINK-3075,PAYLOAD,2022-07-17 02:27:34,15.08830053,0.0001989,53.2169,86.8577,61.6154,298.5038,0.00010593,1.398e-05,0.0,0 STARLINK-3075,1 49409U 21104B   22198.10248138  .00001398  00000-0  10593-3 0  9995,2 49409  53.2169  86.8577 0001989  61.6154 298.5038 15.08830053 38699,6917.911,95.438,541.1519999999998,538.4,0.0
49409.0,STARLINK-3075,PAYLOAD,2022-07-17 23:07:34,15.0884065,0.0001662,53.2173,82.9918,53.0585,307.056,2.6176e-05,1.29e-06,0.0,0 STARLINK-3075,1 49409U 21104B   22198.96359497  .00000129  00000-0  26176-4 0  9996,2 49409  53.2173  82.9918 0001662  53.0585 307.0560 15.08840650 38826,6917.878000000002,95.438,540.893,538.594,0.0
49409.0,STARLINK-3075,PAYLOAD,2022-07-18 19:47:36,15.0882874,0.0001753,53.2174,79.1261,53.5973,306.518,1.016e-05,-1.26e-06,0.0,0 STARLINK-3075,1 49409U 21104B   22199.82472546 -.00000126  00000-0  10160-4 0  9997,2 49409  53.2174  79.1261 0001753  53.5973 306.5180 15.08828740 38955,6917.915,95.438,540.993,538.567,0.0
49409.0,STARLINK-3075,PAYLOAD,2022-07-18 21:22:59,15.08831578,0.0001769,53.2177,78.8289,56.7357,303.3805,1.5492e-07,-2.86e-06,0.0,0 STARLINK-3075,1 49409U 21104B   22199.89096432 -.00000286  00000-0  15492-6 0  9992,2 49409  53.2177  78.8289 0001769  56.7357 303.3805 15.08831578 37885,6917.906,95.438,540.995,538.547,0.0
49409.0,STARLINK-3075,PAYLOAD,2022-07-19 02:09:08,15.08835864,0.0001751,53.2177,77.9363,53.2767,306.8386,7.566e-05,9.16e-06,0.0,0 STARLINK-3075,1 49409U 21104B   22200.08967997  .00000916  00000-0  75660-4 0  9999,2 49409  53.2177  77.9363 0001751  53.2767 306.8386 15.08835864 38993,6917.893,95.438,540.969,538.547,0.0
49409.0,STARLINK-3075,PAYLOAD,2022-07-19 08:30:40,15.08845291,0.000178,53.2178,76.7473,53.4296,306.6859,0.00010348,1.359e-05,0.0,0 STARLINK-3075,1 49409U 21104B   22200.35463328  .00001359  00000-0  10348-3 0  9991,2 49409  53.2178  76.7473 0001780  53.4296 306.6859 15.08845291 39038,6917.864000000001,95.437,540.961,538.498,0.0
49409.0,STARLINK-3075,PAYLOAD,2022-07-19 22:49:08,15.08842538,0.0001686,53.217,74.072,54.9299,305.1851,9.9607e-05,1.298e-05,0.0,0 STARLINK-3075,1 49409U 21104B   22200.95079426  .00001298  00000-0  99607-4 0  9997,2 49409  53.2170  74.0720 0001686  54.9299 305.1851 15.08842538 38047,6917.873000000001,95.437,540.904,538.571,0.0
49409.0,STARLINK-3075,PAYLOAD,2022-07-20 08:21:26,15.08850851,0.0001783,53.2176,72.2874,54.9617,305.1542,0.00018073,2.59e-05,0.0,0 STARLINK-3075,1 49409U 21104B   22201.34822603  .00002590  00000-0  18073-3 0  9997,2 49409  53.2176  72.2874 0001783  54.9617 305.1542 15.08850851 38106,6917.847,95.437,540.946,538.479,0.0
